start=new Date('2023-06-10T00:00:00.000Z').valueOf();
sats=[{"RA_OF_ASC_NODE":"305.9071","MEAN_ANOMALY":"94.3884","MEAN_ELEMENT_THEORY":"SGP4","TIME_SYSTEM":"UTC","TLE_LINE1":"1 49159U 21082AF  23160.68575162  .00000274  00000-0  30779-4 0  9996","CLASSIFICATION_TYPE":"U","EPOCH":"2023-06-09T16:27:28.939968","INCLINATION":"69.9999","COUNTRY_CODE":"US","REF_FRAME":"TEME","EPHEMERIS_TYPE":"0","TLE_LINE2":"2 49159  69.9999 305.9071 0003222 265.6907  94.3884 14.98316344 96688","ARG_OF_PERICENTER":"265.6907","BSTAR":"0.00003077900000","FILE":"3929125","MEAN_MOTION_DDOT":"0.0000000000000","SITE":"AFWTR","GP_ID":"233578011","OBJECT_TYPE":"PAYLOAD","MEAN_MOTION":"14.98316344","REV_AT_EPOCH":"9668","LAUNCH_DATE":"2021-09-14","PERIAPSIS":"569.861","ELEMENT_SET_NO":"999","DECAY_DATE":null,"OBJECT_ID":"2021-082AF","APOAPSIS":"574.339","OBJECT_NAME":"STARLINK-3056","RCS_SIZE":"LARGE","CENTER_NAME":"EARTH","PERIOD":"96.108","SEMIMAJOR_AXIS":"6950.235","ECCENTRICITY":"0.00032220","MEAN_MOTION_DOT":"0.00000274","NORAD_CAT_ID":"49159"},{"OBJECT_ID":"2021-082AG","DECAY_DATE":null,"PERIAPSIS":"569.883","ELEMENT_SET_NO":"999","APOAPSIS":"574.235","OBJECT_NAME":"STARLINK-3095","PERIOD":"96.107","RCS_SIZE":"LARGE","CENTER_NAME":"EARTH","SEMIMAJOR_AXIS":"6950.194","MEAN_MOTION_DOT":"0.00000090","ECCENTRICITY":"0.00031310","NORAD_CAT_ID":"49160","RA_OF_ASC_NODE":"305.9205","TLE_LINE1":"1 49160U 21082AG  23160.67321477  .00000090  00000-0  15335-4 0  9992","CLASSIFICATION_TYPE":"U","EPOCH":"2023-06-09T16:09:25.756128","TIME_SYSTEM":"UTC","MEAN_ANOMALY":"90.0809","MEAN_ELEMENT_THEORY":"SGP4","INCLINATION":"70.0000","TLE_LINE2":"2 49160  70.0000 305.9205 0003131 269.9991  90.0809 14.98329712 96654","EPHEMERIS_TYPE":"0","REF_FRAME":"TEME","COUNTRY_CODE":"US","MEAN_MOTION_DDOT":"0.0000000000000","FILE":"3929125","BSTAR":"0.00001533500000","ARG_OF_PERICENTER":"269.9991","GP_ID":"233578262","SITE":"AFWTR","OBJECT_TYPE":"PAYLOAD","LAUNCH_DATE":"2021-09-14","REV_AT_EPOCH":"9665","MEAN_MOTION":"14.98329712"},{"RA_OF_ASC_NODE":"305.9074","MEAN_ELEMENT_THEORY":"SGP4","MEAN_ANOMALY":"90.6520","TIME_SYSTEM":"UTC","TLE_LINE1":"1 49161U 21082AH  23160.67739042  .00000043  00000-0  11440-4 0  9995","CLASSIFICATION_TYPE":"U","EPOCH":"2023-06-09T16:15:26.532288","INCLINATION":"69.9992","COUNTRY_CODE":"US","REF_FRAME":"TEME","EPHEMERIS_TYPE":"0","TLE_LINE2":"2 49161  69.9992 305.9074 0003166 269.4276  90.6520 14.98325884 96668","ARG_OF_PERICENTER":"269.4276","FILE":"3929125","BSTAR":"0.00001144000000","MEAN_MOTION_DDOT":"0.0000000000000","SITE":"AFWTR","GP_ID":"233578511","OBJECT_TYPE":"PAYLOAD","MEAN_MOTION":"14.98325884","REV_AT_EPOCH":"9666","LAUNCH_DATE":"2021-09-14","PERIAPSIS":"569.870","ELEMENT_SET_NO":"999","DECAY_DATE":null,"OBJECT_ID":"2021-082AH","APOAPSIS":"574.271","OBJECT_NAME":"STARLINK-3080","RCS_SIZE":"LARGE","CENTER_NAME":"EARTH","PERIOD":"96.107","SEMIMAJOR_AXIS":"6950.206","MEAN_MOTION_DOT":"0.00000043","ECCENTRICITY":"0.00031660","NORAD_CAT_ID":"49161"},{"PERIOD":"96.107","RCS_SIZE":"LARGE","CENTER_NAME":"EARTH","SEMIMAJOR_AXIS":"6950.200","ECCENTRICITY":"0.00031420","MEAN_MOTION_DOT":"-0.00000044","NORAD_CAT_ID":"49162","OBJECT_ID":"2021-082AJ","DECAY_DATE":null,"PERIAPSIS":"569.882","ELEMENT_SET_NO":"999","APOAPSIS":"574.249","OBJECT_NAME":"STARLINK-3082","MEAN_MOTION_DDOT":"0.0000000000000","FILE":"3929125","BSTAR":"0.00000408360000","ARG_OF_PERICENTER":"268.9159","GP_ID":"233577261","SITE":"AFWTR","OBJECT_TYPE":"PAYLOAD","LAUNCH_DATE":"2021-09-14","REV_AT_EPOCH":"9674","MEAN_MOTION":"14.98327609","RA_OF_ASC_NODE":"305.9349","TLE_LINE1":"1 49162U 21082AJ  23160.66904476 -.00000044  00000-0  40836-5 0  9994","EPOCH":"2023-06-09T16:03:25.467264","CLASSIFICATION_TYPE":"U","TIME_SYSTEM":"UTC","MEAN_ANOMALY":"91.1640","MEAN_ELEMENT_THEORY":"SGP4","INCLINATION":"69.9992","TLE_LINE2":"2 49162  69.9992 305.9349 0003142 268.9159  91.1640 14.98327609 96747","EPHEMERIS_TYPE":"0","REF_FRAME":"TEME","COUNTRY_CODE":"US"},{"SEMIMAJOR_AXIS":"6950.191","PERIOD":"96.107","CENTER_NAME":"EARTH","RCS_SIZE":"LARGE","NORAD_CAT_ID":"49163","ECCENTRICITY":"0.00032640","MEAN_MOTION_DOT":"0.00000161","DECAY_DATE":null,"OBJECT_ID":"2021-082AK","PERIAPSIS":"569.787","ELEMENT_SET_NO":"999","OBJECT_NAME":"STARLINK-3088","APOAPSIS":"574.324","GP_ID":"233552411","SITE":"AFWTR","FILE":"3928945","BSTAR":"0.00002129400000","MEAN_MOTION_DDOT":"0.0000000000000","ARG_OF_PERICENTER":"270.8282","LAUNCH_DATE":"2021-09-14","MEAN_MOTION":"14.98330634","REV_AT_EPOCH":"9721","OBJECT_TYPE":"PAYLOAD","CLASSIFICATION_TYPE":"U","TLE_LINE1":"1 49163U 21082AK  23160.44349699  .00000161  00000-0  21294-4 0  9996","EPOCH":"2023-06-09T10:38:38.139936","MEAN_ANOMALY":"89.2503","MEAN_ELEMENT_THEORY":"SGP4","TIME_SYSTEM":"UTC","RA_OF_ASC_NODE":"286.5141","EPHEMERIS_TYPE":"0","TLE_LINE2":"2 49163  70.0000 286.5141 0003264 270.8282  89.2503 14.98330634 97210","COUNTRY_CODE":"US","REF_FRAME":"TEME","INCLINATION":"70.0000"},{"CLASSIFICATION_TYPE":"U","TLE_LINE1":"1 49164U 21082AL  23160.70218795  .00001023  00000-0  93523-4 0  9990","EPOCH":"2023-06-09T16:51:09.038880","TIME_SYSTEM":"UTC","MEAN_ANOMALY":"88.0932","MEAN_ELEMENT_THEORY":"SGP4","RA_OF_ASC_NODE":"285.8687","TLE_LINE2":"2 49164  69.9994 285.8687 0003349 271.9843  88.0932 14.98333052 97250","EPHEMERIS_TYPE":"0","REF_FRAME":"TEME","COUNTRY_CODE":"US","INCLINATION":"69.9994","GP_ID":"233578763","SITE":"AFWTR","MEAN_MOTION_DDOT":"0.0000000000000","FILE":"3929125","BSTAR":"0.00009352300000","ARG_OF_PERICENTER":"271.9843","LAUNCH_DATE":"2021-09-14","REV_AT_EPOCH":"9725","MEAN_MOTION":"14.98333052","OBJECT_TYPE":"PAYLOAD","OBJECT_ID":"2021-082AL","DECAY_DATE":null,"PERIAPSIS":"569.721","ELEMENT_SET_NO":"999","OBJECT_NAME":"STARLINK-3106","APOAPSIS":"574.376","SEMIMAJOR_AXIS":"6950.183","PERIOD":"96.107","CENTER_NAME":"EARTH","RCS_SIZE":"LARGE","NORAD_CAT_ID":"49164","MEAN_MOTION_DOT":"0.00001023","ECCENTRICITY":"0.00033490"},{"PERIOD":"96.107","CENTER_NAME":"EARTH","RCS_SIZE":"LARGE","SEMIMAJOR_AXIS":"6950.189","ECCENTRICITY":"0.00031990","MEAN_MOTION_DOT":"0.00000129","NORAD_CAT_ID":"49165","OBJECT_ID":"2021-082AM","DECAY_DATE":null,"PERIAPSIS":"569.831","ELEMENT_SET_NO":"999","APOAPSIS":"574.277","OBJECT_NAME":"STARLINK-3052","MEAN_MOTION_DDOT":"0.0000000000000","FILE":"3929125","BSTAR":"0.00001856600000","ARG_OF_PERICENTER":"267.0383","GP_ID":"233579012","SITE":"AFWTR","OBJECT_TYPE":"PAYLOAD","LAUNCH_DATE":"2021-09-14","REV_AT_EPOCH":"9678","MEAN_MOTION":"14.98331290","RA_OF_ASC_NODE":"305.9486","CLASSIFICATION_TYPE":"U","TLE_LINE1":"1 49165U 21082AM  23160.66503362  .00000129  00000-0  18566-4 0  9993","EPOCH":"2023-06-09T15:57:38.904768","TIME_SYSTEM":"UTC","MEAN_ANOMALY":"93.0410","MEAN_ELEMENT_THEORY":"SGP4","INCLINATION":"70.0000","TLE_LINE2":"2 49165  70.0000 305.9486 0003199 267.0383  93.0410 14.98331290 96787","EPHEMERIS_TYPE":"0","REF_FRAME":"TEME","COUNTRY_CODE":"US"},{"CENTER_NAME":"EARTH","RCS_SIZE":"LARGE","PERIOD":"96.107","SEMIMAJOR_AXIS":"6950.197","ECCENTRICITY":"0.00033650","MEAN_MOTION_DOT":"0.00000153","NORAD_CAT_ID":"49166","ELEMENT_SET_NO":"999","PERIAPSIS":"569.723","OBJECT_ID":"2021-082AN","DECAY_DATE":null,"APOAPSIS":"574.401","OBJECT_NAME":"STARLINK-3089","ARG_OF_PERICENTER":"270.4861","MEAN_MOTION_DDOT":"0.0000000000000","FILE":"3929083","BSTAR":"0.00002063900000","SITE":"AFWTR","GP_ID":"233556120","OBJECT_TYPE":"PAYLOAD","REV_AT_EPOCH":"9724","MEAN_MOTION":"14.98328633","LAUNCH_DATE":"2021-09-14","RA_OF_ASC_NODE":"286.5280","TIME_SYSTEM":"UTC","MEAN_ANOMALY":"89.5912","MEAN_ELEMENT_THEORY":"SGP4","CLASSIFICATION_TYPE":"U","TLE_LINE1":"1 49166U 21082AN  23160.43932706  .00000153  00000-0  20639-4 0  9998","EPOCH":"2023-06-09T10:32:37.857984","INCLINATION":"70.0004","REF_FRAME":"TEME","COUNTRY_CODE":"US","TLE_LINE2":"2 49166  70.0004 286.5280 0003365 270.4861  89.5912 14.98328633 97248","EPHEMERIS_TYPE":"0"},{"TLE_LINE1":"1 49167U 21082AP  23160.66069786  .00000174  00000-0  22395-4 0  9997","CLASSIFICATION_TYPE":"U","EPOCH":"2023-06-09T15:51:24.295104","MEAN_ANOMALY":"90.3810","MEAN_ELEMENT_THEORY":"SGP4","TIME_SYSTEM":"UTC","RA_OF_ASC_NODE":"305.9622","EPHEMERIS_TYPE":"0","TLE_LINE2":"2 49167  69.9995 305.9622 0003011 269.7004  90.3810 14.98330534 96787","COUNTRY_CODE":"US","REF_FRAME":"TEME","INCLINATION":"69.9995","GP_ID":"233578012","SITE":"AFWTR","BSTAR":"0.00002239500000","FILE":"3929125","MEAN_MOTION_DDOT":"0.0000000000000","ARG_OF_PERICENTER":"269.7004","LAUNCH_DATE":"2021-09-14","MEAN_MOTION":"14.98330534","REV_AT_EPOCH":"9678","OBJECT_TYPE":"PAYLOAD","DECAY_DATE":null,"OBJECT_ID":"2021-082AP","ELEMENT_SET_NO":"999","PERIAPSIS":"569.964","OBJECT_NAME":"STARLINK-3054","APOAPSIS":"574.149","SEMIMAJOR_AXIS":"6950.191","PERIOD":"96.107","RCS_SIZE":"LARGE","CENTER_NAME":"EARTH","NORAD_CAT_ID":"49167","ECCENTRICITY":"0.00030110","MEAN_MOTION_DOT":"0.00000174"},{"REF_FRAME":"TEME","COUNTRY_CODE":"US","TLE_LINE2":"2 49168  69.9987 285.8813 0003652 270.7426  89.3314 14.98329067 97280","EPHEMERIS_TYPE":"0","INCLINATION":"69.9987","TIME_SYSTEM":"UTC","MEAN_ANOMALY":"89.3314","MEAN_ELEMENT_THEORY":"SGP4","EPOCH":"2023-06-09T16:33:07.767072","TLE_LINE1":"1 49168U 21082AQ  23160.68967323  .00000369  00000-0  38722-4 0  9991","CLASSIFICATION_TYPE":"U","RA_OF_ASC_NODE":"285.8813","REV_AT_EPOCH":"9728","MEAN_MOTION":"14.98329067","LAUNCH_DATE":"2021-09-14","OBJECT_TYPE":"PAYLOAD","SITE":"AFWTR","GP_ID":"233578263","ARG_OF_PERICENTER":"270.7426","MEAN_MOTION_DDOT":"0.0000000000000","BSTAR":"0.00003872200000","FILE":"3929125","OBJECT_NAME":"STARLINK-3101","APOAPSIS":"574.599","PERIAPSIS":"569.523","ELEMENT_SET_NO":"999","OBJECT_ID":"2021-082AQ","DECAY_DATE":null,"NORAD_CAT_ID":"49168","MEAN_MOTION_DOT":"0.00000369","ECCENTRICITY":"0.00036520","SEMIMAJOR_AXIS":"6950.196","CENTER_NAME":"EARTH","RCS_SIZE":"LARGE","PERIOD":"96.107"}];
